{"spkid": "20162183", "covariance": {"epoch": "2456037.5", "labels": ["e", "q", "tp", "node", "peri", "i"], "data": [["1.468531361865987E-15", "-3.046711800572593E-15", "-2.047822534452391E-13", "3.353009588998864E-14", "-1.63510053363976E-13", "-1.813800279669414E-14"], ["-3.046711800572593E-15", "6.322118892973013E-15", "4.323964247700672E-13", "3.565176464085221E-14", "2.382126520383104E-13", "3.948523894837019E-14"], ["-2.047822534452391E-13", "4.323964247700672E-13", "2.013916472185886E-10", "2.49588537856739E-11", "1.228483403419817E-10", "6.492540629484872E-12"], ["3.353009588998864E-14", "3.565176464085221E-14", "2.49588537856739E-11", "2.261275575820705E-7", "-2.260218318542054E-7", "2.667537552137552E-9"], ["-1.63510053363976E-13", "2.382126520383104E-13", "1.228483403419817E-10", "-2.260218318542054E-7", "2.260548069448492E-7", "-2.660661981319348E-9"], ["-1.813800279669414E-14", "3.948523894837019E-14", "6.492540629484872E-12", "2.667537552137552E-9", "-2.660661981319348E-9", "4.240917178346355E-11"]], "elements": [{"label": "e", "sigma": 3.83214217098738e-08, "name": "e", "title": "eccentricity", "value": ".5345552616868949", "units": null}, {"units": "au", "title": "perihelion distance", "value": ".9652184957040159", "sigma": 7.95117531750685e-08, "name": "q", "label": "q"}, {"label": "tp", "title": "time of perihelion passage", "value": "2455804.042163431360", "units": "TDB", "sigma": 1.41912524894242e-05, "name": "tp"}, {"label": "node", "units": "deg", "title": "longitude of the ascending node", "value": "235.9858780838979", "sigma": 0.000475528713730381, "name": "om"}, {"name": "w", "sigma": 0.000475452213103325, "units": "deg", "title": "argument of perihelion", "value": "122.3734033810927", "label": "peri"}, {"name": "i", "sigma": 6.51223247308199e-06, "units": "deg", "title": "inclination", "value": "1.423307274232138", "label": "i"}]}, "elements": [{"label": "e", "units": null, "value": ".5348491063928832", "title": "eccentricity", "name": "e", "sigma": "3.8371E-8"}, {"label": "a", "units": "au", "value": "2.073004854849738", "title": "semi-major axis", "name": "a", "sigma": "1.8968E-9"}, {"label": "q", "units": "au", "title": "perihelion distance", "value": ".9642600606852473", "name": "q", "sigma": "7.9612E-8"}, {"label": "i", "name": "i", "sigma": "6.4355E-6", "title": "inclination; angle with respect to x-y ecliptic plane", "value": "1.431716076393628", "units": "deg"}, {"label": "node", "sigma": ".00047303", "name": "om", "units": "deg", "value": "235.3089580082572", "title": "longitude of the ascending node"}, {"units": "deg", "title": "argument of perihelion", "value": "123.1708878587035", "name": "w", "sigma": ".00047296", "label": "peri"}, {"label": "M", "title": "mean anomaly", "value": "341.2363568143932", "units": "deg", "sigma": "6.1125E-6", "name": "ma"}, {"label": "tp", "name": "tp", "sigma": "1.8565E-5", "units": "TDB", "value": "2461257.321614656547", "title": "time of perihelion passage"}, {"label": "period", "sigma": "1.4962E-6", "name": "per", "value": "1090.181745304556", "title": "sidereal orbital period", "units": "d"}, {"label": "n", "sigma": "4.5322E-10", "name": "n", "title": "mean motion", "value": ".3302201688393063", "units": "deg/d"}, {"label": "Q", "units": "au", "title": "aphelion distance", "value": "3.181749649014229", "name": "ad", "sigma": "2.9112E-9"}], "epoch": "2461200.5"}